{
  "norad_id": 64713,
  "name": "STARLINK-34583",
  "history": [
    {
      "epoch": "2026-03-28T19:52:54.001920Z",
      "apogee_km": 573.4769834743565,
      "perigee_km": 570.4357616163988,
      "latitude_deg": 5.0600352599131706e-05,
      "longitude_deg": 141.85386335918804,
      "height_km": 574.4322943923559,
      "semi_major_axis_km": 6950.093372545378,
      "eccentricity": 0.00021879,
      "inclination_deg": 70.0005,
      "raan_deg": 266.3221,
      "arg_perigee_deg": 268.1442,
      "mean_anomaly_deg": 91.9467,
      "mean_motion_rev_day": 14.98362182
    },
    {
      "epoch": "2026-03-29T21:31:03.058752Z",
      "apogee_km": 573.7413116708676,
      "perigee_km": 570.387144558179,
      "latitude_deg": 1.3602240311043801e-05,
      "longitude_deg": 113.57008664288382,
      "height_km": 574.4041857055091,
      "semi_major_axis_km": 6950.201228114523,
      "eccentricity": 0.0002413,
      "inclination_deg": 70.0001,
      "raan_deg": 263.6289,
      "arg_perigee_deg": 272.9695,
      "mean_anomaly_deg": 87.1188,
      "mean_motion_rev_day": 14.98327304
    },
    {
      "epoch": "2026-03-29T21:31:03.059616Z",
      "apogee_km": 573.7416591809288,
      "perigee_km": 570.3867970481169,
      "latitude_deg": 1.8999256947649266e-05,
      "longitude_deg": 113.57008498664973,
      "height_km": 574.4041677012383,
      "semi_major_axis_km": 6950.201228114523,
      "eccentricity": 0.00024135,
      "inclination_deg": 70.0001,
      "raan_deg": 263.6289,
      "arg_perigee_deg": 272.9695,
      "mean_anomaly_deg": 87.1188,
      "mean_motion_rev_day": 14.98327304
    },
    {
      "epoch": "2026-03-30T13:32:24.265536Z",
      "apogee_km": 573.8428822096021,
      "perigee_km": 570.3107835397341,
      "latitude_deg": -6.708289861021699e-05,
      "longitude_deg": -129.10962651160597,
      "height_km": 574.3010603926062,
      "semi_major_axis_km": 6950.213832874668,
      "eccentricity": 0.0002541,
      "inclination_deg": 69.9998,
      "raan_deg": 261.9456,
      "arg_perigee_deg": 276.5906,
      "mean_anomaly_deg": 83.4963,
      "mean_motion_rev_day": 14.98323228
    }
  ]
}